     3.04           N: GNSS NAV DATA    R: GLONASS          RINEX VERSION / TYPE
CRU                 ComNav Technology   20250714 135153 LCL PGM / RUN BY / DATE 
GLUT  0.0000000000D+00 0.000000000D+00      0    0          TIME SYSTEM CORR
GLGP  0.0000000000D+00 0.000000000D+00      0    0          TIME SYSTEM CORR
    18                                                      LEAP SECONDS
                                                            END OF HEADER
R07 2025  7 11  2 15  0 1.087849959731D-04 9.094947017729D-13 8.460000000000D+03
    -1.613029394531D+04 9.583272933960D-01-4.656612873077D-09 0.000000000000D+00
     1.622882031250D+04-1.229025840759D+00 1.862645149231D-09 5.000000000000D+00
     1.136419091797D+04 3.121211051941D+00 1.862645149231D-09 0.000000000000D+00
R08 2025  7 11  2 15  0-4.673376679420D-06 0.000000000000D+00 8.460000000000D+03
    -1.076511083984D+04-2.360210418701D-01-2.793967723846D-09 0.000000000000D+00
     2.246204785156D+04 7.528705596924D-01 0.000000000000D+00 6.000000000000D+00
    -5.526843261719D+03 3.479497909546D+00 2.793967723846D-09 0.000000000000D+00
R12 2025  7 11  2 15  0 5.651917308569D-05 9.094947017729D-13 8.460000000000D+03
     1.176150781250D+04 4.217433929443D-02-9.313225746155D-10 0.000000000000D+00
     2.260091601563D+04-2.307147979736D-01-1.862645149231D-09-1.000000000000D+00
    -1.295696289063D+03-3.556938171387D+00 0.000000000000D+00 0.000000000000D+00
R21 2025  7 11  2 15  0-2.182871103287D-04-3.637978807092D-12 8.460000000000D+03
    -2.329541357422D+04-1.341509819031D+00-3.725290298462D-09 0.000000000000D+00
     3.526471679688D+03 1.414766311646D-01 2.793967723846D-09 4.000000000000D+00
     9.725309082031D+03-3.266404151917D+00 1.862645149231D-09 0.000000000000D+00
R22 2025  7 11  2 15  0 7.440801709890D-05 1.818989403546D-12 8.460000000000D+03
    -7.337427246094D+03-3.034471511841D+00-3.725290298462D-09 0.000000000000D+00
     1.017871728516D+04-1.414480209351D-01 1.862645149231D-09-3.000000000000D+00
     2.223221630859D+04-9.373016357422D-01 0.000000000000D+00 0.000000000000D+00
R23 2025  7 11  2 15  0-1.599350944161D-04-9.094947017729D-13 8.460000000000D+03
     9.325939941406D+03-2.931533813477D+00-2.793967723846D-09 0.000000000000D+00
     1.020713134766D+04-2.405252456665D-01 0.000000000000D+00 3.000000000000D+00
     2.142602343750D+04 1.389288902283D+00-9.313225746155D-10 0.000000000000D+00
R07 2025  7 11  2 15  0 1.087849959731D-04 9.094947017729D-13 8.460000000000D+03
    -1.613029394531D+04 9.583272933960D-01-4.656612873077D-09 0.000000000000D+00
     1.622882031250D+04-1.229025840759D+00 1.862645149231D-09 5.000000000000D+00
     1.136419091797D+04 3.121211051941D+00 1.862645149231D-09 0.000000000000D+00
R08 2025  7 11  2 15  0-4.673376679420D-06 0.000000000000D+00 8.460000000000D+03
    -1.076511083984D+04-2.360210418701D-01-2.793967723846D-09 0.000000000000D+00
     2.246204785156D+04 7.528705596924D-01 0.000000000000D+00 6.000000000000D+00
    -5.526843261719D+03 3.479497909546D+00 2.793967723846D-09 0.000000000000D+00
R12 2025  7 11  2 15  0 5.651917308569D-05 9.094947017729D-13 8.460000000000D+03
     1.176150781250D+04 4.217433929443D-02-9.313225746155D-10 0.000000000000D+00
     2.260091601563D+04-2.307147979736D-01-1.862645149231D-09-1.000000000000D+00
    -1.295696289063D+03-3.556938171387D+00 0.000000000000D+00 0.000000000000D+00
R21 2025  7 11  2 15  0-2.182871103287D-04-3.637978807092D-12 8.460000000000D+03
    -2.329541357422D+04-1.341509819031D+00-3.725290298462D-09 0.000000000000D+00
     3.526471679688D+03 1.414766311646D-01 2.793967723846D-09 4.000000000000D+00
     9.725309082031D+03-3.266404151917D+00 1.862645149231D-09 0.000000000000D+00
R22 2025  7 11  2 15  0 7.440801709890D-05 1.818989403546D-12 8.460000000000D+03
    -7.337427246094D+03-3.034471511841D+00-3.725290298462D-09 0.000000000000D+00
     1.017871728516D+04-1.414480209351D-01 1.862645149231D-09-3.000000000000D+00
     2.223221630859D+04-9.373016357422D-01 0.000000000000D+00 0.000000000000D+00
R23 2025  7 11  2 15  0-1.599350944161D-04-9.094947017729D-13 8.460000000000D+03
     9.325939941406D+03-2.931533813477D+00-2.793967723846D-09 0.000000000000D+00
     1.020713134766D+04-2.405252456665D-01 0.000000000000D+00 3.000000000000D+00
     2.142602343750D+04 1.389288902283D+00-9.313225746155D-10 0.000000000000D+00
R13 2025  7 11  2 15  0-6.058253347874D-05 0.000000000000D+00 8.850000000000D+03
     1.584458203125D+04 1.025624275208D+00-1.862645149231D-09 0.000000000000D+00
     1.458052343750D+04 1.571147918701D+00-9.313225746155D-10-2.000000000000D+00
     1.367205468750D+04-2.862406730652D+00-9.313225746155D-10 0.000000000000D+00
R07 2025  7 11  2 45  0 1.087868586183D-04 9.094947017729D-13 9.000000000000D+03
    -1.428994091797D+04 1.042544364929D+00-3.725290298462D-09 0.000000000000D+00
     1.331555029297D+04-1.995312690735D+00 2.793967723846D-09 5.000000000000D+00
     1.647290185547D+04 2.518501281738D+00 9.313225746155D-10 0.000000000000D+00
R08 2025  7 11  2 45  0-4.673376679420D-06 0.000000000000D+00 9.000000000000D+03
    -1.074259765625D+04 2.268381118774D-01-3.725290298462D-09 0.000000000000D+00
     2.314284082031D+04-2.027893066406D-02 9.313225746155D-10 6.000000000000D+00
     8.688740234375D+02 3.580746650696D+00 2.793967723846D-09 0.000000000000D+00
R12 2025  7 11  2 45  0 5.652010440826D-05 0.000000000000D+00 9.000000000000D+03
     1.137032568359D+04-5.049552917480D-01-9.313225746155D-10 0.000000000000D+00
     2.153827197266D+04-9.201498031616D-01-1.862645149231D-09-1.000000000000D+00
    -7.565343750000D+03-3.364061355591D+00 9.313225746155D-10 0.000000000000D+00
R21 2025  7 11  2 45  0-2.182936295867D-04-3.637978807092D-12 9.000000000000D+03
    -2.493459521484D+04-4.655380249023D-01-1.862645149231D-09 0.000000000000D+00
     3.920288574219D+03 2.554254531860D-01 2.793967723846D-09 4.000000000000D+00
     3.545061523438D+03-3.555844306946D+00 2.793967723846D-09 0.000000000000D+00
R22 2025  7 11  2 45  0 7.441174238920D-05 1.818989403546D-12 9.000000000000D+03
    -1.252311572266D+04-2.680126190186D+00-3.725290298462D-09 0.000000000000D+00
     1.031203076172D+04 2.732543945313D-01 2.793967723846D-09-3.000000000000D+00
     1.970951660156D+04-1.847583770752D+00 9.313225746155D-10 0.000000000000D+00
R23 2025  7 11  2 45  0-1.599369570613D-04-9.094947017729D-13 9.000000000000D+03
     3.799696289063D+03-3.157242774963D+00-3.725290298462D-09 0.000000000000D+00
     1.018349365234D+04 2.242918014526D-01 9.313225746155D-10 3.000000000000D+00
     2.306538330078D+04 4.203634262085D-01 0.000000000000D+00 0.000000000000D+00
